{"type": "FeatureCollection", "features": [ {"type": "Feature", "properties": {"norad_id": 33650, "name": "FENGYUN 1C DEB", "group": "fengyun-1c-debris", "lat": 64.74834083009571, "lon": 130.43316268963244, "alt_km": 820.3877191139991, "timestamp": "2025-12-10T21:43:22.374694+00:00", "meta": {"OBJECT_NAME": "FENGYUN 1C DEB", "OBJECT_ID": "1999-025DEK", "EPOCH": "2025-12-08T05:27:12.984768", "MEAN_MOTION": 13.89181804, "ECCENTRICITY": 0.01501243, "INCLINATION": 98.9884, "RA_OF_ASC_NODE": 147.4557, "ARG_OF_PERICENTER": 91.2923, "MEAN_ANOMALY": 270.5438, "EPHEMERIS_TYPE": 0, "CLASSIFICATION_TYPE": "U", "NORAD_CAT_ID": 33650, "ELEMENT_SET_NO": 999, "REV_AT_EPOCH": 68746, "BSTAR": 0.0012694502, "MEAN_MOTION_DOT": 1.648e-05, "MEAN_MOTION_DDOT": 0}, "tle": {"line1": "1 33650U 99025DEK 25342.22723362  .00001648  00000+0  12695-2 0  9998", "line2": "2 33650  98.9884 147.4557 0150124  91.2923 270.5438 13.89181804687460"}}, "geometry": {"type": "Point", "coordinates": [130.43316268963244, 64.74834083009571]}}, {"type": "Feature", "properties": {"norad_id": 33651, "name": "FENGYUN 1C DEB", "group": "fengyun-1c-debris", "lat": 47.279534672298645, "lon": -139.97688194257302, "alt_km": 793.7651550527416, "timestamp": "2025-12-10T21:43:22.374705+00:00", "meta": {"OBJECT_NAME": "FENGYUN 1C DEB", "OBJECT_ID": "1999-025DEL", "EPOCH": "2025-12-09T09:36:40.963968", "MEAN_MOTION": 14.20352443, "ECCENTRICITY": 0.01178528, "INCLINATION": 98.6567, "RA_OF_ASC_NODE": 29.0543, "ARG_OF_PERICENTER": 63.5748, "MEAN_ANOMALY": 297.7466, "EPHEMERIS_TYPE": 0, "CLASSIFICATION_TYPE": "U", "NORAD_CAT_ID": 33651, "ELEMENT_SET_NO": 999, "REV_AT_EPOCH": 64224, "BSTAR": 0.00025261989, "MEAN_MOTION_DOT": 5.38e-06, "MEAN_MOTION_DDOT": 0}, "tle": {"line1": "1 33651U 99025DEL 25343.40047412  .00000538  00000+0  25262-3 0  9997", "line2": "2 33651  98.6567  29.0543 0117852  63.5748 297.7466 14.20352443642248"}}, "geometry": {"type": "Point", "coordinates": [-139.97688194257302, 47.279534672298645]}}, {"type": "Feature", "properties": {"norad_id": 33655, "name": "FENGYUN 1C DEB", "group": "fengyun-1c-debris", "lat": 35.67292591704505, "lon": 43.54016323259067, "alt_km": 543.6075324436233, "timestamp": "2025-12-10T21:43:22.374715+00:00", "meta": {"OBJECT_NAME": "FENGYUN 1C DEB", "OBJECT_ID": "1999-025DEQ", "EPOCH": "2025-12-10T10:20:18.997152", "MEAN_MOTION": 14.97569201, "ECCENTRICITY": 0.00476075, "INCLINATION": 98.8014, "RA_OF_ASC_NODE": 49.3921, "ARG_OF_PERICENTER": 6.4, "MEAN_ANOMALY": 353.7817, "EPHEMERIS_TYPE": 0, "CLASSIFICATION_TYPE": "U", "NORAD_CAT_ID": 33655, "ELEMENT_SET_NO": 999, "REV_AT_EPOCH": 96523, "BSTAR": 0.0026111082, "MEAN_MOTION_DOT": 0.00031253, "MEAN_MOTION_DDOT": 0}, "tle": {"line1": "1 33655U 99025DEQ 25344.43077543  .00031253  00000+0  26111-2 0  9994", "line2": "2 33655  98.8014  49.3921 0047607   6.4000 353.7817 14.97569201965239"}}, "geometry": {"type": "Point", "coordinates": [43.54016323259067, 35.67292591704505]}}, {"type": "Feature", "properties": {"norad_id": 33656, "name": "FENGYUN 1C DEB", "group": "fengyun-1c-debris", "lat": -70.77747219870034, "lon": 3.668378944058734, "alt_km": 844.5394815956861, "timestamp": "2025-12-10T21:43:22.374725+00:00", "meta": {"OBJECT_NAME": "FENGYUN 1C DEB", "OBJECT_ID": "1999-025DER", "EPOCH": "2025-12-08T19:25:37.486560", "MEAN_MOTION": 14.2271982, "ECCENTRICITY": 0.00906449, "INCLINATION": 98.5783, "RA_OF_ASC_NODE": 335.9755, "ARG_OF_PERICENTER": 42.7826, "MEAN_ANOMALY": 318.0362, "EPHEMERIS_TYPE": 0, "CLASSIFICATION_TYPE": "U", "NORAD_CAT_ID": 33656, "ELEMENT_SET_NO": 999, "REV_AT_EPOCH": 62653, "BSTAR": 0.00077976866, "MEAN_MOTION_DOT": 1.78e-05, "MEAN_MOTION_DDOT": 0}, "tle": {"line1": "1 33656U 99025DER 25342.80946165  .00001780  00000+0  77977-3 0  9998", "line2": "2 33656  98.5783 335.9755 0090644  42.7826 318.0362 14.22719820626535"}}, "geometry": {"type": "Point", "coordinates": [3.668378944058734, -70.77747219870034]}}, {"type": "Feature", "properties": {"norad_id": 33658, "name": "FENGYUN 1C DEB", "group": "fengyun-1c-debris", "lat": 34.11681375437511, "lon": 131.57826670314122, "alt_km": 1207.4154824195275, "timestamp": "2025-12-10T21:43:22.374735+00:00", "meta": {"OBJECT_NAME": "FENGYUN 1C DEB", "OBJECT_ID": "1999-025DET", "EPOCH": "2025-12-10T03:55:02.596800", "MEAN_MOTION": 13.62337712, "ECCENTRICITY": 0.02836119, "INCLINATION": 99.5634, "RA_OF_ASC_NODE": 137.408, "ARG_OF_PERICENTER": 187.7936, "MEAN_ANOMALY": 171.875, "EPHEMERIS_TYPE": 0, "CLASSIFICATION_TYPE": "U", "NORAD_CAT_ID": 33658, "ELEMENT_SET_NO": 999, "REV_AT_EPOCH": 58104, "BSTAR": 0.005143475, "MEAN_MOTION_DOT": 5.177e-05, "MEAN_MOTION_DDOT": 0}, "tle": {"line1": "1 33658U 99025DET 25344.16322450  .00005177  00000+0  51435-2 0  9990", "line2": "2 33658  99.5634 137.4080 0283611 187.7936 171.8750 13.62337712581040"}}, "geometry": {"type": "Point", "coordinates": [131.57826670314122, 34.11681375437511]}}, {"type": "Feature", "properties": {"norad_id": 33660, "name": "FENGYUN 1C DEB", "group": "fengyun-1c-debris", "lat": 26.44463430878624, "lon": 80.55926182043122, "alt_km": 931.9361748824631, "timestamp": "2025-12-10T21:43:22.374745+00:00", "meta": {"OBJECT_NAME": "FENGYUN 1C DEB", "OBJECT_ID": "1999-025DEV", "EPOCH": "2025-12-08T17:21:22.345056", "MEAN_MOTION": 13.91763329, "ECCENTRICITY": 0.01098533, "INCLINATION": 98.6563, "RA_OF_ASC_NODE": 254.177, "ARG_OF_PERICENTER": 257.3117, "MEAN_ANOMALY": 130.7477, "EPHEMERIS_TYPE": 0, "CLASSIFICATION_TYPE": "U", "NORAD_CAT_ID": 33660, "ELEMENT_SET_NO": 999, "REV_AT_EPOCH": 91008, "BSTAR": 0.00090111184, "MEAN_MOTION_DOT": 1.162e-05, "MEAN_MOTION_DDOT": 0}, "tle": {"line1": "1 33660U 99025DEV 25342.72317529  .00001162  00000+0  90111-3 0  9999", "line2": "2 33660  98.6563 254.1770 0109853 257.3117 130.7477 13.91763329910086"}}, "geometry": {"type": "Point", "coordinates": [80.55926182043122, 26.44463430878624]}}, {"type": "Feature", "properties": {"norad_id": 33663, "name": "FENGYUN 1C DEB", "group": "fengyun-1c-debris", "lat": 46.71889049135816, "lon": 165.5239819405165, "alt_km": 706.1958658660633, "timestamp": "2025-12-10T21:43:22.374756+00:00", "meta": {"OBJECT_NAME": "FENGYUN 1C DEB", "OBJECT_ID": "1999-025DEY", "EPOCH": "2025-12-09T10:37:30.702144", "MEAN_MOTION": 14.61681168, "ECCENTRICITY": 0.00823538, "INCLINATION": 98.8852, "RA_OF_ASC_NODE": 334.3914, "ARG_OF_PERICENTER": 23.2121, "MEAN_ANOMALY": 337.2764, "EPHEMERIS_TYPE": 0, "CLASSIFICATION_TYPE": "U", "NORAD_CAT_ID": 33663, "ELEMENT_SET_NO": 999, "REV_AT_EPOCH": 64154, "BSTAR": 0.0086324652, "MEAN_MOTION_DOT": 0.00045332, "MEAN_MOTION_DDOT": 0}, "tle": {"line1": "1 33663U 99025DEY 25343.44271646  .00045332  00000+0  86325-2 0  9999", "line2": "2 33663  98.8852 334.3914 0082353  23.2121 337.2764 14.61681168641546"}}, "geometry": {"type": "Point", "coordinates": [165.5239819405165, 46.71889049135816]}}, {"type": "Feature", "properties": {"norad_id": 33664, "name": "FENGYUN 1C DEB", "group": "fengyun-1c-debris", "lat": 37.27670129073045, "lon": 127.03059635720388, "alt_km": 759.0980501583699, "timestamp": "2025-12-10T21:43:22.374766+00:00", "meta": {"OBJECT_NAME": "FENGYUN 1C DEB", "OBJECT_ID": "1999-025DEZ", "EPOCH": "2025-12-02T03:10:30.773568", "MEAN_MOTION": 14.03976749, "ECCENTRICITY": 0.01640632, "INCLINATION": 98.7018, "RA_OF_ASC_NODE": 125.3204, "ARG_OF_PERICENTER": 69.7897, "MEAN_ANOMALY": 292.0828, "EPHEMERIS_TYPE": 0, "CLASSIFICATION_TYPE": "U", "NORAD_CAT_ID": 33664, "ELEMENT_SET_NO": 999, "REV_AT_EPOCH": 90590, "BSTAR": 0.00053085125, "MEAN_MOTION_DOT": 9.05e-06, "MEAN_MOTION_DDOT": 0}, "tle": {"line1": "1 33664U 99025DEZ 25336.13230062  .00000905  00000+0  53085-3 0  9990", "line2": "2 33664  98.7018 125.3204 0164063  69.7897 292.0828 14.03976749905904"}}, "geometry": {"type": "Point", "coordinates": [127.03059635720388, 37.27670129073045]}}, {"type": "Feature", "properties": {"norad_id": 33665, "name": "FENGYUN 1C DEB", "group": "fengyun-1c-debris", "lat": 22.12826675338447, "lon": -73.86648228178628, "alt_km": 705.2652118657697, "timestamp": "2025-12-10T21:43:22.374776+00:00", "meta": {"OBJECT_NAME": "FENGYUN 1C DEB", "OBJECT_ID": "1999-025DFA", "EPOCH": "2025-12-10T14:10:39.817632", "MEAN_MOTION": 14.03622897, "ECCENTRICITY": 0.04558023, "INCLINATION": 99.0225, "RA_OF_ASC_NODE": 102.116, "ARG_OF_PERICENTER": 98.1625, "MEAN_ANOMALY": 267.149, "EPHEMERIS_TYPE": 0, "CLASSIFICATION_TYPE": "U", "NORAD_CAT_ID": 33665, "ELEMENT_SET_NO": 999, "REV_AT_EPOCH": 92561, "BSTAR": 0.0010667195, "MEAN_MOTION_DOT": 4.217e-05, "MEAN_MOTION_DDOT": 0}, "tle": {"line1": "1 33665U 99025DFA 25344.59073863  .00004217  00000+0  10667-2 0  9992", "line2": "2 33665  99.0225 102.1160 0455802  98.1625 267.1490 14.03622897925612"}}, "geometry": {"type": "Point", "coordinates": [-73.86648228178628, 22.12826675338447]}}, {"type": "Feature", "properties": {"norad_id": 33673, "name": "FENGYUN 1C DEB", "group": "fengyun-1c-debris", "lat": 20.33148473593492, "lon": -144.81285040023153, "alt_km": 881.6806685753936, "timestamp": "2025-12-10T21:43:22.374786+00:00", "meta": {"OBJECT_NAME": "FENGYUN 1C DEB", "OBJECT_ID": "1999-025DFJ", "EPOCH": "2025-12-10T14:48:26.575200", "MEAN_MOTION": 13.95534938, "ECCENTRICITY": 0.01076472, "INCLINATION": 99.3449, "RA_OF_ASC_NODE": 31.3971, "ARG_OF_PERICENTER": 230.1103, "MEAN_ANOMALY": 283.4815, "EPHEMERIS_TYPE": 0, "CLASSIFICATION_TYPE": "U", "NORAD_CAT_ID": 33673, "ELEMENT_SET_NO": 999, "REV_AT_EPOCH": 89872, "BSTAR": 0.00067382464, "MEAN_MOTION_DOT": 9.14e-06, "MEAN_MOTION_DDOT": 0}, "tle": {"line1": "1 33673U 99025DFJ 25344.61697425  .00000914  00000+0  67382-3 0  9997", "line2": "2 33673  99.3449  31.3971 0107647 230.1103 283.4815 13.95534938898726"}}, "geometry": {"type": "Point", "coordinates": [-144.81285040023153, 20.33148473593492]}}]}